CCSDS_OMM_VERS = 2.0
CREATION_DATE  = 
ORIGINATOR     = 

OBJECT_NAME    = STARLINK-36085
OBJECT_ID      = 2025-294F
CENTER_NAME    = EARTH
REF_FRAME      = TEME
TIME_SYSTEM    = UTC
MEAN_ELEMENT_THEORY = SGP/SGP4

EPOCH          = 2026-01-03T04:25:38.906976
MEAN_MOTION    = 15.50629994
ECCENTRICITY   = .0001381
INCLINATION    = 42.9999
RA_OF_ASC_NODE = 52.9875
ARG_OF_PERICENTER = 262.2357
MEAN_ANOMALY   = 97.8346

EPHEMERIS_TYPE = 0
CLASSIFICATION_TYPE = U
NORAD_CAT_ID   = 67035
ELEMENT_SET_NO = 999
REV_AT_EPOCH   = 472
BSTAR          = .24926E-2
MEAN_MOTION_DOT = .148975E-2
MEAN_MOTION_DDOT = 0

CCSDS_OMM_VERS = 2.0
CREATION_DATE  = 
ORIGINATOR     = 

OBJECT_NAME    = STARLINK-36125
OBJECT_ID      = 2025-294G
CENTER_NAME    = EARTH
REF_FRAME      = TEME
TIME_SYSTEM    = UTC
MEAN_ELEMENT_THEORY = SGP/SGP4

EPOCH          = 2026-01-03T04:26:08.538720
MEAN_MOTION    = 15.50630846
ECCENTRICITY   = .0001331
INCLINATION    = 43.0019
RA_OF_ASC_NODE = 52.9892
ARG_OF_PERICENTER = 265.5344
MEAN_ANOMALY   = 94.5364

EPHEMERIS_TYPE = 0
CLASSIFICATION_TYPE = U
NORAD_CAT_ID   = 67036
ELEMENT_SET_NO = 999
REV_AT_EPOCH   = 472
BSTAR          = .25426E-2
MEAN_MOTION_DOT = .152033E-2
MEAN_MOTION_DDOT = 0

CCSDS_OMM_VERS = 2.0
CREATION_DATE  = 
ORIGINATOR     = 

OBJECT_NAME    = STARLINK-35732
OBJECT_ID      = 2025-294H
CENTER_NAME    = EARTH
REF_FRAME      = TEME
TIME_SYSTEM    = UTC
MEAN_ELEMENT_THEORY = SGP/SGP4

EPOCH          = 2026-01-03T04:25:09.271776
MEAN_MOTION    = 15.50623381
ECCENTRICITY   = .0001329
INCLINATION    = 42.9999
RA_OF_ASC_NODE = 52.9840
ARG_OF_PERICENTER = 267.9865
MEAN_ANOMALY   = 92.0843

EPHEMERIS_TYPE = 0
CLASSIFICATION_TYPE = U
NORAD_CAT_ID   = 67037
ELEMENT_SET_NO = 999
REV_AT_EPOCH   = 472
BSTAR          = .22668E-2
MEAN_MOTION_DOT = .135175E-2
MEAN_MOTION_DDOT = 0

CCSDS_OMM_VERS = 2.0
CREATION_DATE  = 
ORIGINATOR     = 

OBJECT_NAME    = STARLINK-35775
OBJECT_ID      = 2025-294J
CENTER_NAME    = EARTH
REF_FRAME      = TEME
TIME_SYSTEM    = UTC
MEAN_ELEMENT_THEORY = SGP/SGP4

EPOCH          = 2026-01-03T04:24:39.651264
MEAN_MOTION    = 15.50639404
ECCENTRICITY   = .000098
INCLINATION    = 42.9998
RA_OF_ASC_NODE = 52.9806
ARG_OF_PERICENTER = 264.1875
MEAN_ANOMALY   = 95.8873

EPHEMERIS_TYPE = 0
CLASSIFICATION_TYPE = U
NORAD_CAT_ID   = 67038
ELEMENT_SET_NO = 999
REV_AT_EPOCH   = 473
BSTAR          = .27141E-2
MEAN_MOTION_DOT = .162583E-2
MEAN_MOTION_DDOT = 0

CCSDS_OMM_VERS = 2.0
CREATION_DATE  = 
ORIGINATOR     = 

OBJECT_NAME    = STARLINK-35705
OBJECT_ID      = 2025-294K
CENTER_NAME    = EARTH
REF_FRAME      = TEME
TIME_SYSTEM    = UTC
MEAN_ELEMENT_THEORY = SGP/SGP4

EPOCH          = 2026-01-03T04:23:40.304832
MEAN_MOTION    = 15.50632919
ECCENTRICITY   = .0001323
INCLINATION    = 42.9998
RA_OF_ASC_NODE = 52.9758
ARG_OF_PERICENTER = 254.4275
MEAN_ANOMALY   = 105.6439

EPHEMERIS_TYPE = 0
CLASSIFICATION_TYPE = U
NORAD_CAT_ID   = 67039
ELEMENT_SET_NO = 999
REV_AT_EPOCH   = 472
BSTAR          = .25864E-2
MEAN_MOTION_DOT = .154723E-2
MEAN_MOTION_DDOT = 0

CCSDS_OMM_VERS = 2.0
CREATION_DATE  = 
ORIGINATOR     = 

OBJECT_NAME    = STARLINK-35786
OBJECT_ID      = 2025-294L
CENTER_NAME    = EARTH
REF_FRAME      = TEME
TIME_SYSTEM    = UTC
MEAN_ELEMENT_THEORY = SGP/SGP4

EPOCH          = 2026-01-03T04:00:00.999072
MEAN_MOTION    = 15.42744983
ECCENTRICITY   = .0001339
INCLINATION    = 43.0005
RA_OF_ASC_NODE = 53.1385
ARG_OF_PERICENTER = 269.3639
MEAN_ANOMALY   = 332.0524

EPHEMERIS_TYPE = 0
CLASSIFICATION_TYPE = U
NORAD_CAT_ID   = 67040
ELEMENT_SET_NO = 999
REV_AT_EPOCH   = 354
BSTAR          = -.53946E-1
MEAN_MOTION_DOT = -.2132671E-1
MEAN_MOTION_DDOT = 0

CCSDS_OMM_VERS = 2.0
CREATION_DATE  = 
ORIGINATOR     = 

OBJECT_NAME    = STARLINK-35765
OBJECT_ID      = 2025-294M
CENTER_NAME    = EARTH
REF_FRAME      = TEME
TIME_SYSTEM    = UTC
MEAN_ELEMENT_THEORY = SGP/SGP4

EPOCH          = 2026-01-03T04:23:10.705920
MEAN_MOTION    = 15.50620246
ECCENTRICITY   = .0001463
INCLINATION    = 43.0001
RA_OF_ASC_NODE = 52.9731
ARG_OF_PERICENTER = 253.8843
MEAN_ANOMALY   = 106.1856

EPHEMERIS_TYPE = 0
CLASSIFICATION_TYPE = U
NORAD_CAT_ID   = 67041
ELEMENT_SET_NO = 999
REV_AT_EPOCH   = 472
BSTAR          = .22647E-2
MEAN_MOTION_DOT = .135032E-2
MEAN_MOTION_DDOT = 0

CCSDS_OMM_VERS = 2.0
CREATION_DATE  = 
ORIGINATOR     = 

OBJECT_NAME    = STARLINK-35773
OBJECT_ID      = 2025-294N
CENTER_NAME    = EARTH
REF_FRAME      = TEME
TIME_SYSTEM    = UTC
MEAN_ELEMENT_THEORY = SGP/SGP4

EPOCH          = 2026-01-03T04:00:00.999072
MEAN_MOTION    = 15.46680649
ECCENTRICITY   = .0000871
INCLINATION    = 43.0004
RA_OF_ASC_NODE = 53.0775
ARG_OF_PERICENTER = 259.4339
MEAN_ANOMALY   = 6.5954

EPHEMERIS_TYPE = 0
CLASSIFICATION_TYPE = U
NORAD_CAT_ID   = 67042
ELEMENT_SET_NO = 999
REV_AT_EPOCH   = 373
BSTAR          = -.4518E-1
MEAN_MOTION_DOT = -.2055122E-1
MEAN_MOTION_DDOT = 0

CCSDS_OMM_VERS = 2.0
CREATION_DATE  = 
ORIGINATOR     = 

OBJECT_NAME    = STARLINK-35901
OBJECT_ID      = 2025-294P
CENTER_NAME    = EARTH
REF_FRAME      = TEME
TIME_SYSTEM    = UTC
MEAN_ELEMENT_THEORY = SGP/SGP4

EPOCH          = 2026-01-03T04:22:11.404416
MEAN_MOTION    = 15.50626471
ECCENTRICITY   = .0001409
INCLINATION    = 42.9998
RA_OF_ASC_NODE = 52.9671
ARG_OF_PERICENTER = 252.2816
MEAN_ANOMALY   = 107.7890

EPHEMERIS_TYPE = 0
CLASSIFICATION_TYPE = U
NORAD_CAT_ID   = 67043
ELEMENT_SET_NO = 999
REV_AT_EPOCH   = 472
BSTAR          = .25366E-2
MEAN_MOTION_DOT = .151643E-2
MEAN_MOTION_DDOT = 0

CCSDS_OMM_VERS = 2.0
CREATION_DATE  = 
ORIGINATOR     = 

OBJECT_NAME    = STARLINK-35884
OBJECT_ID      = 2025-294Q
CENTER_NAME    = EARTH
REF_FRAME      = TEME
TIME_SYSTEM    = UTC
MEAN_ELEMENT_THEORY = SGP/SGP4

EPOCH          = 2026-01-03T04:00:00.999072
MEAN_MOTION    = 15.40806108
ECCENTRICITY   = .0001058
INCLINATION    = 43.0007
RA_OF_ASC_NODE = 53.2534
ARG_OF_PERICENTER = 273.9815
MEAN_ANOMALY   = 279.2938

EPHEMERIS_TYPE = 0
CLASSIFICATION_TYPE = U
NORAD_CAT_ID   = 67044
ELEMENT_SET_NO = 999
REV_AT_EPOCH   = 373
BSTAR          = -.4129E-2
MEAN_MOTION_DOT = -.169595E-2
MEAN_MOTION_DDOT = 0

CCSDS_OMM_VERS = 2.0
CREATION_DATE  = 
ORIGINATOR     = 

OBJECT_NAME    = STARLINK-35891
OBJECT_ID      = 2025-294R
CENTER_NAME    = EARTH
REF_FRAME      = TEME
TIME_SYSTEM    = UTC
MEAN_ELEMENT_THEORY = SGP/SGP4

EPOCH          = 2026-01-03T04:21:12.217824
MEAN_MOTION    = 15.50618196
ECCENTRICITY   = .0001515
INCLINATION    = 42.9999
RA_OF_ASC_NODE = 52.9620
ARG_OF_PERICENTER = 256.9916
MEAN_ANOMALY   = 103.0775

EPHEMERIS_TYPE = 0
CLASSIFICATION_TYPE = U
NORAD_CAT_ID   = 67045
ELEMENT_SET_NO = 999
REV_AT_EPOCH   = 472
BSTAR          = .25593E-2
MEAN_MOTION_DOT = .152985E-2
MEAN_MOTION_DDOT = 0

CCSDS_OMM_VERS = 2.0
CREATION_DATE  = 
ORIGINATOR     = 

OBJECT_NAME    = STARLINK-35721
OBJECT_ID      = 2025-294S
CENTER_NAME    = EARTH
REF_FRAME      = TEME
TIME_SYSTEM    = UTC
MEAN_ELEMENT_THEORY = SGP/SGP4

EPOCH          = 2026-01-03T04:00:00.999072
MEAN_MOTION    = 15.50633203
ECCENTRICITY   = .0001427
INCLINATION    = 43.0006
RA_OF_ASC_NODE = 53.0433
ARG_OF_PERICENTER = 252.9551
MEAN_ANOMALY   = 26.7947

EPHEMERIS_TYPE = 0
CLASSIFICATION_TYPE = U
NORAD_CAT_ID   = 67046
ELEMENT_SET_NO = 999
REV_AT_EPOCH   = 373
BSTAR          = -.17784E-2
MEAN_MOTION_DOT = -.103502E-2
MEAN_MOTION_DDOT = 0

