STARLINK-36085          
1 67035U 25294F   26003.18447809  .00148975  00000+0  24926-2 0  9993
2 67035  42.9999  52.9875 0001381 262.2357  97.8346 15.50629994  4721
STARLINK-36125          
1 67036U 25294G   26003.18482105  .00152033  00000+0  25426-2 0  9998
2 67036  43.0019  52.9892 0001331 265.5344  94.5364 15.50630846  4725
STARLINK-35732          
1 67037U 25294H   26003.18413509  .00135175  00000+0  22668-2 0  9994
2 67037  42.9999  52.9840 0001329 267.9865  92.0843 15.50623381  4726
STARLINK-35775          
1 67038U 25294J   26003.18379226  .00162583  00000+0  27141-2 0  9996
2 67038  42.9998  52.9806 0000980 264.1875  95.8873 15.50639404  4738
STARLINK-35705          
1 67039U 25294K   26003.18310538  .00154723  00000+0  25864-2 0  9995
2 67039  42.9998  52.9758 0001323 254.4275 105.6439 15.50632919  4724
STARLINK-35786          
1 67040U 25294L   26003.16667823 -.02132671  00000+0 -53946-1 0  9990
2 67040  43.0005  53.1385 0001339 269.3639 332.0524 15.42744983  3548
STARLINK-35765          
1 67041U 25294M   26003.18276280  .00135032  00000+0  22647-2 0  9991
2 67041  43.0001  52.9731 0001463 253.8843 106.1856 15.50620246  4723
STARLINK-35773          
1 67042U 25294N   26003.16667823 -.02055122  00000+0 -45180-1 0  9998
2 67042  43.0004  53.0775 0000871 259.4339   6.5954 15.46680649  3731
STARLINK-35901          
1 67043U 25294P   26003.18207644  .00151643  00000+0  25366-2 0  9998
2 67043  42.9998  52.9671 0001409 252.2816 107.7890 15.50626471  4725
STARLINK-35884          
1 67044U 25294Q   26003.16667823 -.00169595  00000+0 -41290-2 0  9997
2 67044  43.0007  53.2534 0001058 273.9815 279.2938 15.40806108  3734
STARLINK-35891          
1 67045U 25294R   26003.18139141  .00152985  00000+0  25593-2 0  9998
2 67045  42.9999  52.9620 0001515 256.9916 103.0775 15.50618196  4728
STARLINK-35721          
1 67046U 25294S   26003.16667823 -.00103502  00000+0 -17784-2 0  9996
2 67046  43.0006  53.0433 0001427 252.9551  26.7947 15.50633203  3735
